ONEWEB-0628             
1 55169U 23004AF  24116.59934599  .00000329  00000+0  88021-3 0  9997
2 55169  87.8950 146.4314 0002153  66.3890 293.7464 13.12444404 65385
ONEWEB-0629             
1 55170U 23004AG  24116.68767903  .00000039  00000+0  66237-4 0  9996
2 55170  87.9195 161.6068 0001699  85.9833 274.1493 13.17650349 64535
ONEWEB-0631             
1 55171U 23004AH  24116.58667694  .00000026  00000+0  33352-4 0  9990
2 55171  87.9134 131.1979 0002741  94.7153 265.4292 13.18686695 66530
ONEWEB-0709             
1 55172U 23004AJ  24116.70345986  .00000490  00000+0  13469-2 0  9992
2 55172  87.9005 176.7489 0002997 109.7113 250.4338 13.11414471 63317
ONEWEB-0710             
1 55173U 23004AK  24116.68133208 -.00000220  00000+0 -59997-3 0  9992
2 55173  87.9195 161.6195 0002219  92.9467 267.1918 13.17648952 64530
ONEWEB-0711             
1 55174U 23004AL  24116.67585929  .00000035  00000+0  62701-4 0  9993
2 55174  87.9012 176.7239 0002376  77.3526 282.7867 13.11418913 63274
ONEWEB-0713             
1 55175U 23004AM  24116.69372095  .00000553  00000+0  15257-2 0  9991
2 55175  87.9006 176.7276 0002083  86.1479 273.9887 13.11416689 63260
ONEWEB-0715             
1 55176U 23004AN  24116.68884782  .00000493  00000+0  13550-2 0  9999
2 55176  87.9010 176.7289 0001903  89.6599 270.4747 13.11417713 63302
